[{"OBJECT_NAME":"STARLINK-30227","OBJECT_ID":"2023-113L","EPOCH":"2026-03-09T05:24:25.568352","MEAN_MOTION":15.18160462,"ECCENTRICITY":0.00027892,"INCLINATION":43.0053,"RA_OF_ASC_NODE":4.8681,"ARG_OF_PERICENTER":225.8359,"MEAN_ANOMALY":134.226,"EPHEMERIS_TYPE":0,"CLASSIFICATION_TYPE":"U","NORAD_CAT_ID":57505,"ELEMENT_SET_NO":999,"REV_AT_EPOCH":14376,"BSTAR":0.0015710865,"MEAN_MOTION_DOT":0.00032605,"MEAN_MOTION_DDOT":0},{"OBJECT_NAME":"LOBACHEVSKY (RS83S)","OBJECT_ID":"2025-313AN","EPOCH":"2026-03-09T21:53:46.312512","MEAN_MOTION":15.21792932,"ECCENTRICITY":0.0010507,"INCLINATION":97.399,"RA_OF_ASC_NODE":145.2052,"ARG_OF_PERICENTER":356.6168,"MEAN_ANOMALY":3.4996,"EPHEMERIS_TYPE":0,"CLASSIFICATION_TYPE":"U","NORAD_CAT_ID":67284,"ELEMENT_SET_NO":999,"REV_AT_EPOCH":1085,"BSTAR":0.00030825721,"MEAN_MOTION_DOT":6.937e-5,"MEAN_MOTION_DDOT":0}]
